{"type": "FeatureCollection", "features": [ {"type": "Feature", "properties": {"norad_id": 66829, "name": "STARLINK-36084", "group": "last-30-days", "lat": 50.612883808623295, "lon": -44.692108467792, "alt_km": 405.87999414077694, "timestamp": "2025-12-26T03:50:10.807951+00:00", "meta": {"OBJECT_NAME": "STARLINK-36084", "OBJECT_ID": "2025-280J", "EPOCH": "2025-12-25T18:01:25.142880", "MEAN_MOTION": 15.5253886, "ECCENTRICITY": 0.000326, "INCLINATION": 70.0007, "RA_OF_ASC_NODE": 162.7617, "ARG_OF_PERICENTER": 275.3103, "MEAN_ANOMALY": 84.7712, "EPHEMERIS_TYPE": 0, "CLASSIFICATION_TYPE": "U", "NORAD_CAT_ID": 66829, "ELEMENT_SET_NO": 999, "REV_AT_EPOCH": 495, "BSTAR": 0.00084476, "MEAN_MOTION_DOT": 0.00052182, "MEAN_MOTION_DDOT": 0}, "tle": {"line1": "1 66829U 25280J   25359.75098545  .00052182  00000+0  84476-3 0  9994", "line2": "2 66829  70.0007 162.7617 0003260 275.3103  84.7712 15.52538860  4959"}}, "geometry": {"type": "Point", "coordinates": [-44.692108467792, 50.612883808623295]}}, {"type": "Feature", "properties": {"norad_id": 66830, "name": "STARLINK-35881", "group": "last-30-days", "lat": 47.34826479087697, "lon": -41.65133186136501, "alt_km": 406.2761260961679, "timestamp": "2025-12-26T03:50:10.807963+00:00", "meta": {"OBJECT_NAME": "STARLINK-35881", "OBJECT_ID": "2025-280K", "EPOCH": "2025-12-25T18:00:25.831872", "MEAN_MOTION": 15.52532434, "ECCENTRICITY": 0.0003362, "INCLINATION": 70.0007, "RA_OF_ASC_NODE": 162.7588, "ARG_OF_PERICENTER": 272.5728, "MEAN_ANOMALY": 87.5074, "EPHEMERIS_TYPE": 0, "CLASSIFICATION_TYPE": "U", "NORAD_CAT_ID": 66830, "ELEMENT_SET_NO": 999, "REV_AT_EPOCH": 495, "BSTAR": 0.00085412, "MEAN_MOTION_DOT": 0.00052754, "MEAN_MOTION_DDOT": 0}, "tle": {"line1": "1 66830U 25280K   25359.75029898  .00052754  00000+0  85412-3 0  9997", "line2": "2 66830  70.0007 162.7588 0003362 272.5728  87.5074 15.52532434  4956"}}, "geometry": {"type": "Point", "coordinates": [-41.65133186136501, 47.34826479087697]}}, {"type": "Feature", "properties": {"norad_id": 66831, "name": "STARLINK-35788", "group": "last-30-days", "lat": 45.66569727319267, "lon": -40.25120542814492, "alt_km": 406.4091611805725, "timestamp": "2025-12-26T03:50:10.807975+00:00", "meta": {"OBJECT_NAME": "STARLINK-35788", "OBJECT_ID": "2025-280L", "EPOCH": "2025-12-25T19:32:43.082592", "MEAN_MOTION": 15.52548073, "ECCENTRICITY": 0.0003312, "INCLINATION": 70.0003, "RA_OF_ASC_NODE": 162.5824, "ARG_OF_PERICENTER": 274.9756, "MEAN_ANOMALY": 85.1052, "EPHEMERIS_TYPE": 0, "CLASSIFICATION_TYPE": "U", "NORAD_CAT_ID": 66831, "ELEMENT_SET_NO": 999, "REV_AT_EPOCH": 496, "BSTAR": 0.0014653, "MEAN_MOTION_DOT": 0.00091114, "MEAN_MOTION_DDOT": 0}, "tle": {"line1": "1 66831U 25280L   25359.81438753  .00091114  00000+0  14653-2 0  9990", "line2": "2 66831  70.0003 162.5824 0003312 274.9756  85.1052 15.52548073  4963"}}, "geometry": {"type": "Point", "coordinates": [-40.25120542814492, 45.66569727319267]}}, {"type": "Feature", "properties": {"norad_id": 66832, "name": "STARLINK-35768", "group": "last-30-days", "lat": 43.984613786955414, "lon": -38.94829088802619, "alt_km": 406.6801574321544, "timestamp": "2025-12-26T03:50:10.807985+00:00", "meta": {"OBJECT_NAME": "STARLINK-35768", "OBJECT_ID": "2025-280M", "EPOCH": "2025-12-25T19:32:13.477632", "MEAN_MOTION": 15.52549261, "ECCENTRICITY": 0.0003456, "INCLINATION": 70.0005, "RA_OF_ASC_NODE": 162.5798, "ARG_OF_PERICENTER": 275.3488, "MEAN_ANOMALY": 84.7305, "EPHEMERIS_TYPE": 0, "CLASSIFICATION_TYPE": "U", "NORAD_CAT_ID": 66832, "ELEMENT_SET_NO": 999, "REV_AT_EPOCH": 496, "BSTAR": 0.001608, "MEAN_MOTION_DOT": 0.00100124, "MEAN_MOTION_DDOT": 0}, "tle": {"line1": "1 66832U 25280M   25359.81404488  .00100124  00000+0  16080-2 0  9997", "line2": "2 66832  70.0005 162.5798 0003456 275.3488  84.7305 15.52549261  4968"}}, "geometry": {"type": "Point", "coordinates": [-38.94829088802619, 43.984613786955414]}}, {"type": "Feature", "properties": {"norad_id": 66833, "name": "STARLINK-35858", "group": "last-30-days", "lat": 32.33236323746617, "lon": -31.710668121018152, "alt_km": 384.8767941358592, "timestamp": "2025-12-26T03:50:10.807995+00:00", "meta": {"OBJECT_NAME": "STARLINK-35858", "OBJECT_ID": "2025-280N", "EPOCH": "2025-12-25T19:30:53.978400", "MEAN_MOTION": 15.57235803, "ECCENTRICITY": 0.0008878, "INCLINATION": 70.0002, "RA_OF_ASC_NODE": 162.5768, "ARG_OF_PERICENTER": 250.0111, "MEAN_ANOMALY": 110.0123, "EPHEMERIS_TYPE": 0, "CLASSIFICATION_TYPE": "U", "NORAD_CAT_ID": 66833, "ELEMENT_SET_NO": 999, "REV_AT_EPOCH": 496, "BSTAR": 0.064491, "MEAN_MOTION_DOT": 0.05535892, "MEAN_MOTION_DDOT": 0}, "tle": {"line1": "1 66833U 25280N   25359.81312475  .05535892  00000+0  64491-1 0  9999", "line2": "2 66833  70.0002 162.5768 0008878 250.0111 110.0123 15.57235803  4969"}}, "geometry": {"type": "Point", "coordinates": [-31.710668121018152, 32.33236323746617]}}, {"type": "Feature", "properties": {"norad_id": 66834, "name": "STARLINK-35840", "group": "last-30-days", "lat": 40.581678067332405, "lon": -36.54927482653378, "alt_km": 407.0858634316819, "timestamp": "2025-12-26T03:50:10.808007+00:00", "meta": {"OBJECT_NAME": "STARLINK-35840", "OBJECT_ID": "2025-280P", "EPOCH": "2025-12-25T17:58:27.312672", "MEAN_MOTION": 15.52542638, "ECCENTRICITY": 0.0003221, "INCLINATION": 70.0008, "RA_OF_ASC_NODE": 162.7537, "ARG_OF_PERICENTER": 276.8838, "MEAN_ANOMALY": 83.1982, "EPHEMERIS_TYPE": 0, "CLASSIFICATION_TYPE": "U", "NORAD_CAT_ID": 66834, "ELEMENT_SET_NO": 999, "REV_AT_EPOCH": 495, "BSTAR": 0.00099319, "MEAN_MOTION_DOT": 0.0006146, "MEAN_MOTION_DDOT": 0}, "tle": {"line1": "1 66834U 25280P   25359.74892723  .00061460  00000+0  99319-3 0  9990", "line2": "2 66834  70.0008 162.7537 0003221 276.8838  83.1982 15.52542638  4955"}}, "geometry": {"type": "Point", "coordinates": [-36.54927482653378, 40.581678067332405]}}, {"type": "Feature", "properties": {"norad_id": 66835, "name": "STARLINK-35890", "group": "last-30-days", "lat": 38.84989134789061, "lon": -35.43342424152239, "alt_km": 407.2763770374859, "timestamp": "2025-12-26T03:50:10.808038+00:00", "meta": {"OBJECT_NAME": "STARLINK-35890", "OBJECT_ID": "2025-280Q", "EPOCH": "2025-12-25T19:30:44.496000", "MEAN_MOTION": 15.52557752, "ECCENTRICITY": 0.0003424, "INCLINATION": 70.0006, "RA_OF_ASC_NODE": 162.5756, "ARG_OF_PERICENTER": 275.6014, "MEAN_ANOMALY": 84.4782, "EPHEMERIS_TYPE": 0, "CLASSIFICATION_TYPE": "U", "NORAD_CAT_ID": 66835, "ELEMENT_SET_NO": 999, "REV_AT_EPOCH": 496, "BSTAR": 0.0016585, "MEAN_MOTION_DOT": 0.00103344, "MEAN_MOTION_DDOT": 0}, "tle": {"line1": "1 66835U 25280Q   25359.81301500  .00103344  00000+0  16585-2 0  9998", "line2": "2 66835  70.0006 162.5756 0003424 275.6014  84.4782 15.52557752  4969"}}, "geometry": {"type": "Point", "coordinates": [-35.43342424152239, 38.84989134789061]}}, {"type": "Feature", "properties": {"norad_id": 66836, "name": "STARLINK-35838", "group": "last-30-days", "lat": 37.12525771222699, "lon": -34.38079910977298, "alt_km": 407.5274121731063, "timestamp": "2025-12-26T03:50:10.808049+00:00", "meta": {"OBJECT_NAME": "STARLINK-35838", "OBJECT_ID": "2025-280R", "EPOCH": "2025-12-25T19:30:14.819328", "MEAN_MOTION": 15.52556043, "ECCENTRICITY": 0.0003481, "INCLINATION": 70.0008, "RA_OF_ASC_NODE": 162.5739, "ARG_OF_PERICENTER": 275.1828, "MEAN_ANOMALY": 84.8962, "EPHEMERIS_TYPE": 0, "CLASSIFICATION_TYPE": "U", "NORAD_CAT_ID": 66836, "ELEMENT_SET_NO": 999, "REV_AT_EPOCH": 496, "BSTAR": 0.0015486, "MEAN_MOTION_DOT": 0.00096398, "MEAN_MOTION_DDOT": 0}, "tle": {"line1": "1 66836U 25280R   25359.81267152  .00096398  00000+0  15486-2 0  9992", "line2": "2 66836  70.0008 162.5739 0003481 275.1828  84.8962 15.52556043  4960"}}, "geometry": {"type": "Point", "coordinates": [-34.38079910977298, 37.12525771222699]}}, {"type": "Feature", "properties": {"norad_id": 66837, "name": "STARLINK-35729", "group": "last-30-days", "lat": 35.379636843987505, "lon": -33.36829126076338, "alt_km": 407.77013526619885, "timestamp": "2025-12-26T03:50:10.808062+00:00", "meta": {"OBJECT_NAME": "STARLINK-35729", "OBJECT_ID": "2025-280S", "EPOCH": "2025-12-25T19:29:45.104640", "MEAN_MOTION": 15.52561593, "ECCENTRICITY": 0.0003619, "INCLINATION": 70.0008, "RA_OF_ASC_NODE": 162.5726, "ARG_OF_PERICENTER": 274.5095, "MEAN_ANOMALY": 85.5678, "EPHEMERIS_TYPE": 0, "CLASSIFICATION_TYPE": "U", "NORAD_CAT_ID": 66837, "ELEMENT_SET_NO": 999, "REV_AT_EPOCH": 496, "BSTAR": 0.0015748, "MEAN_MOTION_DOT": 0.0009807, "MEAN_MOTION_DDOT": 0}, "tle": {"line1": "1 66837U 25280S   25359.81232760  .00098070  00000+0  15748-2 0  9990", "line2": "2 66837  70.0008 162.5726 0003619 274.5095  85.5678 15.52561593  4967"}}, "geometry": {"type": "Point", "coordinates": [-33.36829126076338, 35.379636843987505]}}, {"type": "Feature", "properties": {"norad_id": 66838, "name": "STARLINK-35886", "group": "last-30-days", "lat": 31.939231779447127, "lon": -31.507049822802088, "alt_km": 408.2495850842224, "timestamp": "2025-12-26T03:50:10.808073+00:00", "meta": {"OBJECT_NAME": "STARLINK-35886", "OBJECT_ID": "2025-280T", "EPOCH": "2025-12-25T19:28:45.821280", "MEAN_MOTION": 15.5252339, "ECCENTRICITY": 0.0003362, "INCLINATION": 70.001, "RA_OF_ASC_NODE": 162.5696, "ARG_OF_PERICENTER": 273.2183, "MEAN_ANOMALY": 86.8619, "EPHEMERIS_TYPE": 0, "CLASSIFICATION_TYPE": "U", "NORAD_CAT_ID": 66838, "ELEMENT_SET_NO": 999, "REV_AT_EPOCH": 496, "BSTAR": 0.00085055, "MEAN_MOTION_DOT": 0.00052514, "MEAN_MOTION_DDOT": 0}, "tle": {"line1": "1 66838U 25280T   25359.81164145  .00052514  00000+0  85055-3 0  9994", "line2": "2 66838  70.0010 162.5696 0003362 273.2183  86.8619 15.52523390  4968"}}, "geometry": {"type": "Point", "coordinates": [-31.507049822802088, 31.939231779447127]}}]}